STARLINK-4503           
1 53528U 22101B   24042.52304610  .00001230  00000+0  95345-4 0  9997
2 53528  53.2157 233.1760 0001320  84.6022 275.5121 15.08843395 81859
STARLINK-4478           
1 53529U 22101C   24042.51569101  .00002185  00000+0  15530-3 0  9992
2 53529  53.2167 233.2126 0001533  83.2512 276.8654 15.08844517 81855
STARLINK-4482           
1 53530U 22101D   24041.93427293  .00001489  00000+0  11160-3 0  9995
2 53530  53.2160 236.0396 0001293  87.6095 272.5045 15.08844759 81762
STARLINK-4487           
1 53531U 22101E   24042.84320640  .00001307  00000+0  10020-3 0  9998
2 53531  53.2162 231.7395 0001316  87.7579 272.3564 15.08846496 81900
STARLINK-4483           
1 53532U 22101F   24042.81008483  .00000245  00000+0  33502-4 0  9995
2 53532  53.2159 231.8839 0001275 101.0461 259.0675 15.08841597 81907
STARLINK-4493           
1 53533U 22101G   24042.54144479  .00000377  00000+0  41802-4 0  9990
2 53533  53.2166 233.0796 0001317 100.3492 259.7649 15.08841775 81866
STARLINK-4488           
1 53534U 22101H   24041.97469297  .00001999  00000+0  14361-3 0  9995
2 53534  53.2158 235.3667 0001217  95.2069 264.9062 15.08843827 81789
STARLINK-4138           
1 53535U 22101J   24042.80272192  .00001181  00000+0  92280-4 0  9995
2 53535  53.2171 231.9166 0001288 100.2223 259.8914 15.08850364 81905
STARLINK-4053           
1 53536U 22101K   24042.77784943 -.00038404  00000+0 -24019-2 0  9997
2 53536  53.2160 221.9517 0001306  95.8585 264.2556 15.08929202 82039
STARLINK-4120           
1 53537U 22101L   24042.80370654  .00020224  00000+0  12884-2 0  9998
2 53537  53.2165 231.8850 0001816 101.0140 259.1056 15.08746104 81909
STARLINK-4118           
1 53538U 22101M   24042.51660611  .00000739  00000+0  64505-4 0  9990
2 53538  53.2171 223.2051 0001247 100.7038 259.4095 15.08842903 82681
STARLINK-4123           
1 53539U 22101N   24042.79904466  .00000963  00000+0  78591-4 0  9999
2 53539  53.2162 231.9358 0001436 102.4521 257.6632 15.08844045 81904
STARLINK-4486           
1 53540U 22101P   24042.58334491 -.00013433  00000+0 -86527-3 0  9998
2 53540  53.2145 222.9260 0001329  91.1103 280.0869 15.07215409  5824
STARLINK-4485           
1 53541U 22101Q   24042.52672822 -.00001253  00000+0 -60658-4 0  9991
2 53541  53.2162 233.1538 0001377 110.0021 250.1120 15.08845087 82554
STARLINK-4489           
1 53542U 22101R   24042.77052254 -.00000105  00000+0  11475-4 0  9997
2 53542  53.2158 222.0649 0001404  82.7165 277.3987 15.08845293 82039
STARLINK-4297           
1 53543U 22101S   24042.58654178 -.00000727  00000+0 -27619-4 0  9998
2 53543  53.2151 222.9569 0001281 101.5530 258.5606 15.08829257 82695
STARLINK-4303           
1 53544U 22101T   24042.49820756  .00000565  00000+0  53560-4 0  9998
2 53544  53.2171 223.2884 0001600  72.1924 287.9243 15.08844861 82665
STARLINK-4475           
1 53545U 22101U   24042.77419540 -.00000374  00000+0 -53741-5 0  9997
2 53545  53.2168 222.0492 0001462  93.1126 267.0033 15.08858744 82039
STARLINK-4477           
1 53546U 22101V   24042.77875513 -.00001128  00000+0 -52791-4 0  9995
2 53546  53.2165 211.5611 0001373 105.2079 254.9065 15.08836221 82188
STARLINK-4474           
1 53547U 22101W   24042.76684270  .00000779  00000+0  66985-4 0  9992
2 53547  53.2167 222.0826 0001323  77.0437 283.0703 15.08847983 82038
STARLINK-4513           
1 53548U 22101X   24042.48716686  .00002775  00000+0  19235-3 0  9992
2 53548  53.2151 223.3310 0001199 104.4404 255.6721 15.08843063 81998
STARLINK-4516           
1 53549U 22101Y   24041.83212436  .00001389  00000+0  10530-3 0  9994
2 53549  53.2165 226.2756 0001323  86.7961 273.3182 15.08844698 82555
STARLINK-4518           
1 53550U 22101Z   24041.88732898  .00001399  00000+0  10595-3 0  9992
2 53550  53.2162 226.0256 0001322  95.2559 264.8584 15.08841838 82569
STARLINK-4514           
1 53551U 22101AA  24042.49084634  .00001034  00000+0  83051-4 0  9993
2 53551  53.2165 223.3202 0001374  83.9033 276.2116 15.08844904 82657
STARLINK-4495           
1 53552U 22101AB  24042.80732428  .00001735  00000+0  12709-3 0  9999
2 53552  53.2166 221.8942 0001577  86.1636 273.9536 15.08840413 82046
STARLINK-4501           
1 53553U 22101AC  24041.93883107  .00001204  00000+0  93694-4 0  9998
2 53553  53.2162 225.6681 0001350  93.6997 266.4149 15.08839695 82572
STARLINK-4506           
1 53554U 22101AD  24042.80092513  .00000588  00000+0  55000-4 0  9992
2 53554  53.2175 221.9349 0001370  94.0600 266.0549 15.08840518 82043
STARLINK-4504           
1 53555U 22101AE  24042.81100173  .00001282  00000+0  98608-4 0  9999
2 53555  53.2169 221.8757 0001394  79.9827 280.1323 15.08847081 82047
STARLINK-4505           
1 53556U 22101AF  24042.52764670 -.00000154  00000+0  84353-5 0  9997
2 53556  53.2166 223.1488 0001399 104.1949 255.9198 15.08840169 82008
STARLINK-4502           
1 53557U 22101AG  24041.87628535  .00001198  00000+0  93360-4 0  9999
2 53557  53.2173 226.0693 0001357  96.7116 263.4031 15.08841919 81905
STARLINK-4494           
1 53558U 22101AH  24042.79486706  .00000937  00000+0  76909-4 0  9994
2 53558  53.2167 216.6747 0001366  90.1404 269.9744 15.08847904 82118
STARLINK-4508           
1 53559U 22101AJ  24042.53132704  .00001492  00000+0  11182-3 0  9991
2 53559  53.2176 223.1354 0001301 101.5517 258.5621 15.08841604 82004
STARLINK-4564           
1 53560U 22101AK  24042.70522133 -.00002036  00000+0 -10980-3 0  9993
2 53560  53.2167 212.5439 0001155  89.6171 270.4954 15.08855364 82168
STARLINK-4563           
1 53561U 22101AL  24042.52396569  .00000078  00000+0  22974-4 0  9995
2 53561  53.2168 223.1662 0001446 102.1756 257.9398 15.08838545 82006
STARLINK-4565           
1 53562U 22101AM  24042.76777549  .00001543  00000+0  11496-3 0  9997
2 53562  53.2168 212.2208 0001403  96.1056 264.0096 15.08852607 82177
STARLINK-4561           
1 53563U 22101AN  24042.77515137  .00000561  00000+0  53301-4 0  9993
2 53563  53.2172 212.2670 0001344  93.7647 266.3499 15.08843854 82175
STARLINK-4577           
1 53564U 22101AP  24042.69417133 -.00001826  00000+0 -96610-4 0  9999
2 53564  53.2159 212.4711 0001232  86.1530 273.9603 15.08851249 82169
STARLINK-4575           
1 53565U 22101AQ  24042.70250077  .00002739  00000+0  19006-3 0  9999
2 53565  53.2161 212.5252 0001899  95.0374 265.0835 15.08854820 82165
STARLINK-4576           
1 53566U 22101AR  24042.62056329  .00001974  00000+0  14206-3 0  9992
2 53566  53.2161 212.7233 0001456 101.6737 258.4418 15.08848105 82840
STARLINK-4585           
1 53567U 22101AS  24042.49914026  .00001395  00000+0  10575-3 0  9997
2 53567  53.2164 213.3892 0001362  90.2924 269.8224 15.08838189 82133
STARLINK-4583           
1 53568U 22101AT  24042.74201769  .00023738  00000+0  15063-2 0  9990
2 53568  53.2158 212.0577 0001783  82.7878 277.3316 15.08797289 82179
STARLINK-4582           
1 53569U 22101AU  24042.75672439  .00001167  00000+0  91384-4 0  9992
2 53569  53.2168 212.1538 0001449  97.1451 262.9706 15.08843205 82178
STARLINK-4550           
1 53570U 22101AV  24042.74567207  .00000221  00000+0  31975-4 0  9999
2 53570  53.2167 212.0818 0001383 100.1134 260.0014 15.08846584 82173
STARLINK-4584           
1 53571U 22101AW  24042.68311636  .00001542  00000+0  11497-3 0  9999
2 53571  53.2164 212.4014 0001449 110.4562 249.6586 15.08842914 82164
STARLINK-4555           
1 53572U 22101AX  24042.45860857  .00002887  00000+0  19940-3 0  9993
2 53572  53.2146 213.1348 0001408  92.4478 267.6675 15.08841343 82134
STARLINK-4547           
1 53573U 22101AY  24042.60582225  .00002359  00000+0  16619-3 0  9995
2 53573  53.2156 212.6308 0001646 117.7848 242.3311 15.08849160 82156
STARLINK-4559           
1 53574U 22101AZ  24042.72725017  .00000985  00000+0  79961-4 0  9990
2 53574  53.2167 211.9586 0001450  79.7693 280.3463 15.08845950 82172
STARLINK-4551           
1 53575U 22101BA  24042.46966040  .00000747  00000+0  65000-4 0  9990
2 53575  53.2164 213.2027 0001319 101.0463 259.0678 15.08842097 82825
STARLINK-4581           
1 53576U 22101BB  24042.53685795 -.00000266  00000+0  13906-5 0  9990
2 53576  53.2158 212.9082 0001300  96.5159 263.5981 15.08841031 82965
STARLINK-4553           
1 53577U 22101BC  24042.73093548  .00001394  00000+0  10567-3 0  9992
2 53577  53.2157 211.9892 0001451  80.4799 279.6357 15.08845158 82174
STARLINK-4556           
1 53578U 22101BD  24042.78612195  .00002328  00000+0  16432-3 0  9998
2 53578  53.2174 211.6230 0001312  63.1293 296.9833 15.08842673 82181
STARLINK-4580           
1 53579U 22101BE  24042.45123503  .00001476  00000+0  11081-3 0  9991
2 53579  53.2153 213.0868 0001405 101.9447 258.1703 15.08840442 82130
STARLINK-4691           
1 53588U 22104A   24042.38232161  .00004718  00000+0  31424-3 0  9992
2 53588  53.2163  44.0514 0001753  84.3834 275.7358 15.08847117 81766
STARLINK-4673           
1 53589U 22104B   24042.23141638  .00000203  00000+0  30878-4 0  9993
2 53589  53.2175  44.5322 0001551  97.8657 262.2511 15.08841053 81596
STARLINK-4689           
1 53590U 22104C   24042.37863502  .00001105  00000+0  87505-4 0  9992
2 53590  53.2179  44.0273 0001534  95.2304 264.8863 15.08842434 81631
STARLINK-4674           
1 53591U 22104D   24042.37495301  .00005927  00000+0  39033-3 0  9999
2 53591  53.2177  44.0005 0001696  98.7138 261.4046 15.08822214 80599
STARLINK-4672           
1 53592U 22104E   24042.37222073  .00000985  00000+0  79981-4 0  9990
2 53592  53.2176  43.9869 0001515  97.7619 262.3545 15.08845129 81616
STARLINK-4671           
1 53593U 22104F   24042.23513159 -.00002485  00000+0 -13821-3 0  9993
2 53593  53.2179  44.5589 0001510  89.3519 270.7646 15.08809167 81591
STARLINK-4681           
1 53594U 22104G   24042.29028604  .00000532  00000+0  51544-4 0  9990
2 53594  53.2188  44.1929 0001814 110.9784 249.1403 15.08838448 81740
